GLOBALSTAR M045         
1 25676U 99019A   25179.57677505 -.00000065  00000+0  25359-3 0  9998
2 25676  51.9970 272.8082 0000675 171.5210 201.7349 12.27063044194798
GLOBALSTAR M019         
1 25677U 99019B   25179.40744995 -.00000153  00000+0 -65340-3 0  9992
2 25677  51.9893  44.4434 0001579  14.1430 157.7178 12.13873241186500
GLOBALSTAR M044         
1 25678U 99019C   25179.51135148 -.00000022  00000+0  86511-3 0  9996
2 25678  51.9990 356.9338 0006866  66.1575 327.3837 11.90254500172679
GLOBALSTAR M042         
1 25679U 99019D   25179.59018963 -.00000072  00000+0  19196-3 0  9990
2 25679  52.0031  18.7632 0002638 339.6634  58.2464 12.22083921186657
GLOBALSTAR M025         
1 25770U 99031A   25179.15699223 -.00000085  00000+0 -53609-3 0  9994
2 25770  51.9794 133.8577 0001275 172.1441 200.7725 11.22558765482949
GLOBALSTAR M049         
1 25771U 99031B   25179.22462270 -.00000019  00000+0  15964-2 0  9990
2 25771  51.9830 169.0206 0002858  17.4948 342.5947 11.12116331118655
GLOBALSTAR M047         
1 25772U 99031C   25179.18775630 -.00000089  00000+0 -55160-3 0  9994
2 25772  51.9797 165.0222 0016819 282.3051  77.5872 11.31928941472353
GLOBALSTAR M052         
1 25773U 99031D   25179.51085569 -.00000057  00000+0  29231-3 0  9991
2 25773  51.9868 276.8888 0003068 187.4858 184.9684 11.15059971479771
